CTC1_L_00682007-03
1 84079U 22019XW  26037.47811343  .00000000  00000+0  00000-0 0  9990
2 84079  70.0000 180.0000 0000000   0.0000 144.0000  1.86512136    19
CTC1_L_00682007-04
1 84080U 24640JU  26037.47811343  .00000000  00000+0  00000-0 0  9994
2 84080  70.0000 180.0000 0000000   0.0000 180.0000  1.86512136    11
CTC1_L_00682007-05
1 84081U 23193BB  26037.47811343  .00000000  00000+0  00000-0 0  9997
2 84081  70.0000 180.0000 0000000   0.0000 216.0000  1.86512136    12
CTC1_L_00682007-06
1 84082U 22298FV  26037.47811343  .00000000  00000+0  00000-0 0  9993
2 84082  70.0000 180.0000 0000000   0.0000 252.0000  1.86512136    13
CTC1_L_00682007-07
1 84083U 23047LQ  26037.47811343  .00000000  00000+0  00000-0 0  9997
2 84083  70.0000 180.0000 0000000   0.0000 288.0000  1.86512136    13
CTC1_L_00682007-08
1 84084U 22347CX  26037.47811343  .00000000  00000+0  00000-0 0  9990
2 84084  70.0000 180.0000 0000000   0.0000 324.0000  1.86512136    15
CTC1_L_00682007-09
1 84085U 23174EW  26037.47811343  .00000000  00000+0  00000-0 0  9990
2 84085  70.0000 180.0000 0000000   0.0000   0.0000  1.86512136    17
CTC1_L_00682007-10
1 84086U 22430CG  26037.47811343  .00000000  00000+0  00000-0 0  9995
2 84086  70.0000 180.0000 0000000   0.0000  36.0000  1.86512136    17
CTC1_L_00682008-01
1 84087U 26191SM  26037.47811343  .00000000  00000+0  00000-0 0  9994
2 84087  70.0000 210.0000 0000000   0.0000  84.0000  1.86512136    15
CTC1_L_00682008-02
1 84088U 24435DI  26037.47811343  .00000000  00000+0  00000-0 0  9994
2 84088  70.0000 210.0000 0000000   0.0000 120.0000  1.86512136    17
CTC1_L_00682008-03
1 84089U 22345MX  26037.47811343  .00000000  00000+0  00000-0 0  9993
2 84089  70.0000 210.0000 0000000   0.0000 156.0000  1.86512136    17
CTC1_L_00682008-04
1 84090U 26563OF  26037.47811343  .00000000  00000+0  00000-0 0  9991
2 84090  70.0000 210.0000 0000000   0.0000 192.0000  1.86512136    19
CTC1_L_00682008-05
1 84091U 24539DX  26037.47811343  .00000000  00000+0  00000-0 0  9993
2 84091  70.0000 210.0000 0000000   0.0000 228.0000  1.86512136    10
CTC1_L_00682008-06
1 84092U 25198BD  26037.47811343  .00000000  00000+0  00000-0 0  9996
2 84092  70.0000 210.0000 0000000   0.0000 264.0000  1.86512136    11
CTC1_L_00682008-07
1 84093U 23789AR  26037.47811343  .00000000  00000+0  00000-0 0  9991
2 84093  70.0000 210.0000 0000000   0.0000 300.0000  1.86512136    13
CTC1_L_00682008-08
1 84094U 25184LQ  26037.47811343  .00000000  00000+0  00000-0 0  9993
2 84094  70.0000 210.0000 0000000   0.0000 336.0000  1.86512136    13
CTC1_L_00682008-09
1 84095U 22551DX  26037.47811343  .00000000  00000+0  00000-0 0  9999
2 84095  70.0000 210.0000 0000000   0.0000  12.0000  1.86512136    15
CTC1_L_00682008-10
1 84096U 23439WK  26037.47811343  .00000000  00000+0  00000-0 0  9996
2 84096  70.0000 210.0000 0000000   0.0000  48.0000  1.86512136    15
CTC1_L_00682009-01
1 84097U 26371JT  26037.47811343  .00000000  00000+0  00000-0 0  9995
2 84097  70.0000 240.0000 0000000   0.0000  96.0000  1.86512136    12
CTC1_L_00682009-02
1 84098U 25631SJ  26037.47811343  .00000000  00000+0  00000-0 0  9994
2 84098  70.0000 240.0000 0000000   0.0000 132.0000  1.86512136    14
CTC1_L_00682009-03
1 84099U 22380AG  26037.47811343  .00000000  00000+0  00000-0 0  9993
2 84099  70.0000 240.0000 0000000   0.0000 168.0000  1.86512136    14
CTC1_L_00682009-04
1 84100U 25245AX  26037.47811343  .00000000  00000+0  00000-0 0  9999
2 84100  70.0000 240.0000 0000000   0.0000 204.0000  1.86512136    18
CTC1_L_00682009-05
1 84101U 23390WK  26037.47811343  .00000000  00000+0  00000-0 0  9999
2 84101  70.0000 240.0000 0000000   0.0000 240.0000  1.86512136    19
CTC1_L_00682009-06
1 84102U 26754SV  26037.47811343  .00000000  00000+0  00000-0 0  9997
2 84102  70.0000 240.0000 0000000   0.0000 276.0000  1.86512136    19
CTC1_L_00682009-07
1 84103U 25168QM  26037.47811343  .00000000  00000+0  00000-0 0  9996
2 84103  70.0000 240.0000 0000000   0.0000 312.0000  1.86512136    11
CTC1_L_00682009-08
1 84104U 23266XO  26037.47811343  .00000000  00000+0  00000-0 0  9994
2 84104  70.0000 240.0000 0000000   0.0000 348.0000  1.86512136    11
CTC1_L_00682009-09
1 84105U 22997K   26037.47811343  .00000000  00000+0  00000-0 0  9995
2 84105  70.0000 240.0000 0000000   0.0000  24.0000  1.86512136    13
CTC1_L_00682009-10
1 84106U 25657IN  26037.47811343  .00000000  00000+0  00000-0 0  9992
2 84106  70.0000 240.0000 0000000   0.0000  60.0000  1.86512136    14
CTC1_L_00682010-01
1 84107U 24083CP  26037.47811343  .00000000  00000+0  00000-0 0  9995
2 84107  70.0000 270.0000 0000000   0.0000 108.0000  1.86512136    11
CTC1_L_00682010-02
1 84108U 24451TM  26037.47811343  .00000000  00000+0  00000-0 0  9995
2 84108  70.0000 270.0000 0000000   0.0000 144.0000  1.86512136    12
CTC1_L_00682010-03
1 84109U 22287IV  26037.47811343  .00000000  00000+0  00000-0 0  9991
2 84109  70.0000 270.0000 0000000   0.0000 180.0000  1.86512136    13
CTC1_L_00682010-04
1 84110U 23835TS  26037.47811343  .00000000  00000+0  00000-0 0  9993
2 84110  70.0000 270.0000 0000000   0.0000 216.0000  1.86512136    15
CTC1_L_00682010-05
1 84111U 26695LU  26037.47811343  .00000000  00000+0  00000-0 0  9991
2 84111  70.0000 270.0000 0000000   0.0000 252.0000  1.86512136    16
CTC1_L_00682010-06
1 84112U 26082DN  26037.47811343  .00000000  00000+0  00000-0 0  9992
2 84112  70.0000 270.0000 0000000   0.0000 288.0000  1.86512136    16
CTC1_L_00682010-07
1 84113U 24546GV  26037.47811343  .00000000  00000+0  00000-0 0  9996
2 84113  70.0000 270.0000 0000000   0.0000 324.0000  1.86512136    18
CTC1_L_00682010-08
1 84114U 24765DM  26037.47811343  .00000000  00000+0  00000-0 0  9990
2 84114  70.0000 270.0000 0000000   0.0000   0.0000  1.86512136    10
CTC1_L_00682010-09
1 84115U 23463BB  26037.47811343  .00000000  00000+0  00000-0 0  9995
2 84115  70.0000 270.0000 0000000   0.0000  36.0000  1.86512136    10
CTC1_L_00682010-10
1 84116U 22776GD  26037.47811343  .00000000  00000+0  00000-0 0  9992
2 84116  70.0000 270.0000 0000000   0.0000  72.0000  1.86512136    11
CTC1_L_00682011-01
1 84117U 22312IP  26037.47811343  .00000000  00000+0  00000-0 0  9999
2 84117  70.0000 300.0000 0000000   0.0000 120.0000  1.86512136    10
CTC1_L_00682011-02
1 84118U 22355AM  26037.47811343  .00000000  00000+0  00000-0 0  9997
2 84118  70.0000 300.0000 0000000   0.0000 156.0000  1.86512136    10
CTC1_L_00682011-03
1 84119U 22558YU  26037.47811343  .00000000  00000+0  00000-0 0  9993
2 84119  70.0000 300.0000 0000000   0.0000 192.0000  1.86512136    11
CTC1_L_00682011-04
1 84120U 22231QI  26037.47811343  .00000000  00000+0  00000-0 0  9993
2 84120  70.0000 300.0000 0000000   0.0000 228.0000  1.86512136    13
CTC1_L_00682011-05
1 84121U 23469KJ  26037.47811343  .00000000  00000+0  00000-0 0  9998
2 84121  70.0000 300.0000 0000000   0.0000 264.0000  1.86512136    14
CTC1_L_00682011-06
1 84122U 23242TT  26037.47811343  .00000000  00000+0  00000-0 0  9998
2 84122  70.0000 300.0000 0000000   0.0000 300.0000  1.86512136    16
CTC1_L_00682011-07
1 84123U 25759SY  26037.47811343  .00000000  00000+0  00000-0 0  9994
2 84123  70.0000 300.0000 0000000   0.0000 336.0000  1.86512136    16
CTC1_L_00682011-08
1 84124U 22740SK  26037.47811343  .00000000  00000+0  00000-0 0  9992
2 84124  70.0000 300.0000 0000000   0.0000  12.0000  1.86512136    18
CTC1_L_00682011-09
1 84125U 24314GQ  26037.47811343  .00000000  00000+0  00000-0 0  9992
2 84125  70.0000 300.0000 0000000   0.0000  48.0000  1.86512136    18
CTC1_L_00682011-10
1 84126U 26778QS  26037.47811343  .00000000  00000+0  00000-0 0  9999
2 84126  70.0000 300.0000 0000000   0.0000  84.0000  1.86512136    19
CTC1_L_00682012-01
1 84127U 25326DA  26037.47811343  .00000000  00000+0  00000-0 0  9998
2 84127  70.0000 330.0000 0000000   0.0000 132.0000  1.86512136    17
CTC1_L_00682012-02
1 84128U 22183RT  26037.47811343  .00000000  00000+0  00000-0 0  9997
2 84128  70.0000 330.0000 0000000   0.0000 168.0000  1.86512136    17
CTC1_L_00682012-03
1 84129U 24391RP  26037.47811343  .00000000  00000+0  00000-0 0  9991
2 84129  70.0000 330.0000 0000000   0.0000 204.0000  1.86512136    19
CTC1_L_00682012-04
1 84130U 22922TU  26037.47811343  .00000000  00000+0  00000-0 0  9991
2 84130  70.0000 330.0000 0000000   0.0000 240.0000  1.86512136    11
CTC1_L_00682012-05
1 84131U 23544QQ  26037.47811343  .00000000  00000+0  00000-0 0  9993
2 84131  70.0000 330.0000 0000000   0.0000 276.0000  1.86512136    11
CTC1_L_00682012-06
1 84132U 26538ZV  26037.47811343  .00000000  00000+0  00000-0 0  9990
2 84132  70.0000 330.0000 0000000   0.0000 312.0000  1.86512136    13
CTC1_L_00682012-07
1 84133U 24539AG  26037.47811343  .00000000  00000+0  00000-0 0  9990
2 84133  70.0000 330.0000 0000000   0.0000 348.0000  1.86512136    13
CTC1_L_00682012-08
1 84134U 26291RJ  26037.47811343  .00000000  00000+0  00000-0 0  9998
2 84134  70.0000 330.0000 0000000   0.0000  24.0000  1.86512136    15
CTC1_L_00682012-09
1 84135U 23047IF  26037.47811343  .00000000  00000+0  00000-0 0  9995
2 84135  70.0000 330.0000 0000000   0.0000  60.0000  1.86512136    16
CTC1_L_00682012-10
1 84136U 25783DH  26037.47811343  .00000000  00000+0  00000-0 0  9995
2 84136  70.0000 330.0000 0000000   0.0000  96.0000  1.86512136    16
